start=new Date('2023-02-24T00:00:00.000Z').valueOf();
sats=[{"RCS_SIZE":"LARGE","APOAPSIS":"548.093","TIME_SYSTEM":"UTC","COUNTRY_CODE":"US","MEAN_ANOMALY":"296.5737","MEAN_MOTION_DDOT":"0.0000000000000","MEAN_ELEMENT_THEORY":"SGP4","PERIAPSIS":"546.235","RA_OF_ASC_NODE":"298.5144","EPOCH":"2023-02-23T23:28:49.094400","INCLINATION":"53.0516","GP_ID":"226585164","TLE_LINE1":"1 48364U 21038M   23054.97834600  .00017094  00000-0  11632-2 0  9996","REF_FRAME":"TEME","FILE":"3829541","MEAN_MOTION":"15.06416132","OBJECT_TYPE":"PAYLOAD","BSTAR":"0.00116320000000","LAUNCH_DATE":"2021-05-04","SEMIMAJOR_AXIS":"6925.299","NORAD_CAT_ID":"48364","OBJECT_NAME":"STARLINK-2611","DECAY_DATE":null,"MEAN_MOTION_DOT":"0.00017094","SITE":"AFETR","ELEMENT_SET_NO":"999","CENTER_NAME":"EARTH","PERIOD":"95.591","ECCENTRICITY":"0.00013410","ARG_OF_PERICENTER":"63.5389","TLE_LINE2":"2 48364  53.0516 298.5144 0001341  63.5389 296.5737 15.06416132100428","CLASSIFICATION_TYPE":"U","EPHEMERIS_TYPE":"0","REV_AT_EPOCH":"10042","OBJECT_ID":"2021-038M"},{"CENTER_NAME":"EARTH","SITE":"AFETR","ELEMENT_SET_NO":"999","PERIOD":"95.593","ARG_OF_PERICENTER":"96.5073","ECCENTRICITY":"0.00011550","OBJECT_ID":"2021-038N","REV_AT_EPOCH":"10042","EPHEMERIS_TYPE":"0","TLE_LINE2":"2 48365  53.0523 298.4835 0001155  96.5073 263.6048 15.06393188100427","CLASSIFICATION_TYPE":"U","SEMIMAJOR_AXIS":"6925.369","OBJECT_NAME":"STARLINK-2608","NORAD_CAT_ID":"48365","DECAY_DATE":null,"MEAN_MOTION_DOT":"0.00003713","RA_OF_ASC_NODE":"298.4835","TLE_LINE1":"1 48365U 21038N   23054.93776370  .00003713  00000-0  26804-3 0  9993","REF_FRAME":"TEME","INCLINATION":"53.0523","GP_ID":"226585167","EPOCH":"2023-02-23T22:30:22.783680","OBJECT_TYPE":"PAYLOAD","BSTAR":"0.00026804000000","FILE":"3829541","MEAN_MOTION":"15.06393188","LAUNCH_DATE":"2021-05-04","TIME_SYSTEM":"UTC","RCS_SIZE":"LARGE","APOAPSIS":"548.034","COUNTRY_CODE":"US","MEAN_ELEMENT_THEORY":"SGP4","MEAN_MOTION_DDOT":"0.0000000000000","MEAN_ANOMALY":"263.6048","PERIAPSIS":"546.435"},{"PERIOD":"95.594","CENTER_NAME":"EARTH","SITE":"AFETR","ELEMENT_SET_NO":"999","OBJECT_ID":"2021-038P","REV_AT_EPOCH":"9979","CLASSIFICATION_TYPE":"U","TLE_LINE2":"2 48366  53.0513 296.5253 0000672  88.4204 271.6862 15.06367964 99792","EPHEMERIS_TYPE":"0","ARG_OF_PERICENTER":"88.4204","ECCENTRICITY":"0.00006720","OBJECT_NAME":"STARLINK-2631","NORAD_CAT_ID":"48366","SEMIMAJOR_AXIS":"6925.447","MEAN_MOTION_DOT":"0.00025704","DECAY_DATE":null,"TLE_LINE1":"1 48366U 21038P   23054.26185909  .00025704  00000-0  17397-2 0  9992","REF_FRAME":"TEME","INCLINATION":"53.0513","GP_ID":"226566723","EPOCH":"2023-02-23T06:17:04.625376","RA_OF_ASC_NODE":"296.5253","LAUNCH_DATE":"2021-05-04","OBJECT_TYPE":"PAYLOAD","BSTAR":"0.00173970000000","MEAN_MOTION":"15.06367964","FILE":"3828819","COUNTRY_CODE":"US","TIME_SYSTEM":"UTC","RCS_SIZE":"LARGE","APOAPSIS":"547.777","PERIAPSIS":"546.846","MEAN_ELEMENT_THEORY":"SGP4","MEAN_MOTION_DDOT":"0.0000000000000","MEAN_ANOMALY":"271.6862"},{"CENTER_NAME":"EARTH","SITE":"AFETR","ELEMENT_SET_NO":"999","PERIOD":"95.594","ARG_OF_PERICENTER":"98.3813","ECCENTRICITY":"0.00004720","OBJECT_ID":"2021-038Q","REV_AT_EPOCH":"9976","EPHEMERIS_TYPE":"0","TLE_LINE2":"2 48367  53.0513 297.4385 0000472  98.3813 261.7230 15.06370325 99764","CLASSIFICATION_TYPE":"U","SEMIMAJOR_AXIS":"6925.440","NORAD_CAT_ID":"48367","OBJECT_NAME":"STARLINK-2643","DECAY_DATE":null,"MEAN_MOTION_DOT":"0.00020880","RA_OF_ASC_NODE":"297.4385","GP_ID":"226566976","INCLINATION":"53.0513","TLE_LINE1":"1 48367U 21038Q   23054.05913126  .00020880  00000-0  14176-2 0  9992","REF_FRAME":"TEME","EPOCH":"2023-02-23T01:25:08.940864","OBJECT_TYPE":"PAYLOAD","BSTAR":"0.00141760000000","FILE":"3828819","MEAN_MOTION":"15.06370325","LAUNCH_DATE":"2021-05-04","TIME_SYSTEM":"UTC","RCS_SIZE":"LARGE","APOAPSIS":"547.631","COUNTRY_CODE":"US","MEAN_MOTION_DDOT":"0.0000000000000","MEAN_ELEMENT_THEORY":"SGP4","MEAN_ANOMALY":"261.7230","PERIAPSIS":"546.978"},{"SEMIMAJOR_AXIS":"6925.337","NORAD_CAT_ID":"48368","OBJECT_NAME":"STARLINK-2623","DECAY_DATE":null,"MEAN_MOTION_DOT":"0.00017213","CENTER_NAME":"EARTH","SITE":"AFETR","ELEMENT_SET_NO":"999","PERIOD":"95.592","ARG_OF_PERICENTER":"96.9793","ECCENTRICITY":"0.00011910","OBJECT_ID":"2021-038R","REV_AT_EPOCH":"10044","EPHEMERIS_TYPE":"0","TLE_LINE2":"2 48368  53.0516 295.1349 0001191  96.9793 263.1331 15.06403760100449","CLASSIFICATION_TYPE":"U","TIME_SYSTEM":"UTC","RCS_SIZE":"LARGE","APOAPSIS":"548.027","COUNTRY_CODE":"US","MEAN_MOTION_DDOT":"0.0000000000000","MEAN_ELEMENT_THEORY":"SGP4","MEAN_ANOMALY":"263.1331","PERIAPSIS":"546.377","RA_OF_ASC_NODE":"295.1349","INCLINATION":"53.0516","GP_ID":"226574236","TLE_LINE1":"1 48368U 21038R   23054.63418127  .00017213  00000-0  11715-2 0  9990","REF_FRAME":"TEME","EPOCH":"2023-02-23T15:13:13.261728","BSTAR":"0.00117150000000","OBJECT_TYPE":"PAYLOAD","FILE":"3829022","MEAN_MOTION":"15.06403760","LAUNCH_DATE":"2021-05-04"},{"EPOCH":"2023-02-23T04:30:55.130112","INCLINATION":"53.0518","GP_ID":"226565974","TLE_LINE1":"1 48369U 21038S   23054.18813808  .00026243  00000-0  17757-2 0  9991","REF_FRAME":"TEME","RA_OF_ASC_NODE":"296.8582","LAUNCH_DATE":"2021-05-04","MEAN_MOTION":"15.06366736","FILE":"3828819","BSTAR":"0.00177570000000","OBJECT_TYPE":"PAYLOAD","COUNTRY_CODE":"US","RCS_SIZE":"LARGE","APOAPSIS":"548.072","TIME_SYSTEM":"UTC","PERIAPSIS":"546.559","MEAN_ANOMALY":"301.2256","MEAN_MOTION_DDOT":"0.0000000000000","MEAN_ELEMENT_THEORY":"SGP4","PERIOD":"95.594","ELEMENT_SET_NO":"999","SITE":"AFETR","CENTER_NAME":"EARTH","EPHEMERIS_TYPE":"0","TLE_LINE2":"2 48369  53.0518 296.8582 0001093  58.8840 301.2256 15.06366736 99785","CLASSIFICATION_TYPE":"U","OBJECT_ID":"2021-038S","REV_AT_EPOCH":"9978","ECCENTRICITY":"0.00010930","ARG_OF_PERICENTER":"58.8840","NORAD_CAT_ID":"48369","OBJECT_NAME":"STARLINK-2641","SEMIMAJOR_AXIS":"6925.451","MEAN_MOTION_DOT":"0.00026243","DECAY_DATE":null},{"LAUNCH_DATE":"2021-05-04","MEAN_MOTION":"15.06387558","FILE":"3829530","BSTAR":"0.00089724000000","OBJECT_TYPE":"PAYLOAD","EPOCH":"2023-02-23T21:56:33.219168","TLE_LINE1":"1 48370U 21038T   23054.91427337  .00013104  00000-0  89724-3 0  9998","REF_FRAME":"TEME","GP_ID":"226585845","INCLINATION":"53.0513","RA_OF_ASC_NODE":"293.5975","PERIAPSIS":"546.959","MEAN_ANOMALY":"277.0895","MEAN_ELEMENT_THEORY":"SGP4","MEAN_MOTION_DDOT":"0.0000000000000","COUNTRY_CODE":"US","RCS_SIZE":"LARGE","APOAPSIS":"547.544","TIME_SYSTEM":"UTC","EPHEMERIS_TYPE":"0","TLE_LINE2":"2 48370  53.0513 293.5975 0000422  83.0142 277.0895 15.06387558100486","CLASSIFICATION_TYPE":"U","REV_AT_EPOCH":"10048","OBJECT_ID":"2021-038T","ECCENTRICITY":"0.00004220","ARG_OF_PERICENTER":"83.0142","PERIOD":"95.593","ELEMENT_SET_NO":"999","SITE":"AFETR","CENTER_NAME":"EARTH","MEAN_MOTION_DOT":"0.00013104","DECAY_DATE":null,"OBJECT_NAME":"STARLINK-2621","NORAD_CAT_ID":"48370","SEMIMAJOR_AXIS":"6925.387"},{"COUNTRY_CODE":"US","APOAPSIS":"547.575","RCS_SIZE":"LARGE","TIME_SYSTEM":"UTC","PERIAPSIS":"546.899","MEAN_ANOMALY":"221.8869","MEAN_ELEMENT_THEORY":"SGP4","MEAN_MOTION_DDOT":"0.0000000000000","EPOCH":"2023-02-23T20:15:42.113088","TLE_LINE1":"1 48371U 21038U   23054.84423742  .00019588  00000-0  13305-2 0  9990","REF_FRAME":"TEME","GP_ID":"226585854","INCLINATION":"53.0524","RA_OF_ASC_NODE":"293.9113","LAUNCH_DATE":"2021-05-04","FILE":"3829530","MEAN_MOTION":"15.06392433","BSTAR":"0.00133050000000","OBJECT_TYPE":"PAYLOAD","OBJECT_NAME":"STARLINK-2589","NORAD_CAT_ID":"48371","SEMIMAJOR_AXIS":"6925.372","MEAN_MOTION_DOT":"0.00019588","DECAY_DATE":null,"PERIOD":"95.593","SITE":"AFETR","ELEMENT_SET_NO":"999","CENTER_NAME":"EARTH","CLASSIFICATION_TYPE":"U","TLE_LINE2":"2 48371  53.0524 293.9113 0000488 138.2157 221.8869 15.06392433100473","EPHEMERIS_TYPE":"0","REV_AT_EPOCH":"10047","OBJECT_ID":"2021-038U","ECCENTRICITY":"0.00004880","ARG_OF_PERICENTER":"138.2157"},{"RA_OF_ASC_NODE":"297.2018","EPOCH":"2023-02-23T02:39:26.829216","TLE_LINE1":"1 48372U 21038V   23054.11072719  .00025697  00000-0  17397-2 0  9998","REF_FRAME":"TEME","INCLINATION":"53.0526","GP_ID":"226494863","MEAN_MOTION":"15.06358415","FILE":"3826452","BSTAR":"0.00173970000000","OBJECT_TYPE":"PAYLOAD","LAUNCH_DATE":"2021-05-04","APOAPSIS":"548.130","RCS_SIZE":"LARGE","TIME_SYSTEM":"UTC","COUNTRY_CODE":"US","MEAN_ANOMALY":"284.4352","MEAN_ELEMENT_THEORY":"SGP4","MEAN_MOTION_DDOT":"0.0000000000000","PERIAPSIS":"546.552","SITE":"AFETR","ELEMENT_SET_NO":"999","CENTER_NAME":"EARTH","PERIOD":"95.595","ECCENTRICITY":"0.00011390","ARG_OF_PERICENTER":"75.6763","EPHEMERIS_TYPE":"0","TLE_LINE2":"2 48372  53.0526 297.2018 0001139  75.6763 284.4352 15.06358415100360","CLASSIFICATION_TYPE":"U","OBJECT_ID":"2021-038V","REV_AT_EPOCH":"10036","SEMIMAJOR_AXIS":"6925.476","OBJECT_NAME":"STARLINK-2572","NORAD_CAT_ID":"48372","DECAY_DATE":null,"MEAN_MOTION_DOT":"0.00025697"},{"FILE":"3828819","MEAN_MOTION":"15.06359032","OBJECT_TYPE":"PAYLOAD","BSTAR":"0.00159320000000","LAUNCH_DATE":"2021-05-04","RA_OF_ASC_NODE":"297.2131","EPOCH":"2023-02-23T02:34:08.675040","INCLINATION":"53.0532","GP_ID":"226566474","TLE_LINE1":"1 48373U 21038W   23054.10704485  .00023502  00000-0  15932-2 0  9996","REF_FRAME":"TEME","MEAN_ANOMALY":"258.1217","MEAN_MOTION_DDOT":"0.0000000000000","MEAN_ELEMENT_THEORY":"SGP4","PERIAPSIS":"546.484","APOAPSIS":"548.194","RCS_SIZE":"LARGE","TIME_SYSTEM":"UTC","COUNTRY_CODE":"US","ECCENTRICITY":"0.00012350","ARG_OF_PERICENTER":"101.9910","CLASSIFICATION_TYPE":"U","TLE_LINE2":"2 48373  53.0532 297.2131 0001235 101.9910 258.1217 15.06359032 99774","EPHEMERIS_TYPE":"0","OBJECT_ID":"2021-038W","REV_AT_EPOCH":"9977","ELEMENT_SET_NO":"999","SITE":"AFETR","CENTER_NAME":"EARTH","PERIOD":"95.595","DECAY_DATE":null,"MEAN_MOTION_DOT":"0.00023502","SEMIMAJOR_AXIS":"6925.474","NORAD_CAT_ID":"48373","OBJECT_NAME":"STARLINK-2609"}];
